{"type":"Feature","properties":{"name":"Χίος","source":"© OpenStreetMap contributors (ODbL)"},"geometry":{"type":"Polygon","coordinates":[[[25.8308,38.5458],[25.8314,38.5394],[25.8372,38.5361],[25.844,38.5291],[25.8461,38.5237],[25.8455,38.5213],[25.847,38.5201],[25.8465,38.5173],[25.8486,38.5158],[25.8499,38.512],[25.8518,38.5114],[25.8515,38.5065],[25.8534,38.506],[25.8544,38.5039],[25.8571,38.5035],[25.8568,38.498],[25.8586,38.4976],[25.8591,38.4958],[25.8636,38.4947],[25.8625,38.4917],[25.8653,38.4903],[25.8679,38.4911],[25.8693,38.4894],[25.8719,38.4889],[25.8746,38.485],[25.8806,38.4825],[25.8815,38.4807],[25.8841,38.4809],[25.8874,38.4791],[25.8871,38.4771],[25.8909,38.4744],[25.8923,38.4743],[25.8948,38.4766],[25.8988,38.4743],[25.9024,38.4751],[25.9044,38.4725],[25.9089,38.4734],[25.911,38.4725],[25.9114,38.4703],[25.9149,38.4713],[25.9151,38.4692],[25.9165,38.4693],[25.9183,38.4673],[25.9174,38.4687],[25.9189,38.469],[25.9172,38.4695],[25.9203,38.4705],[25.9193,38.4679],[25.9241,38.4692],[25.9433,38.4591],[25.9466,38.4526],[25.9447,38.4476],[25.9472,38.4465],[25.9486,38.4483],[25.9511,38.4481],[25.9573,38.4413],[25.9566,38.438],[25.959,38.4321],[25.9548,38.4252],[25.9538,38.4191],[25.9544,38.4181],[25.9628,38.418],[25.963,38.4162],[25.9599,38.4148],[25.9614,38.4133],[25.9607,38.4115],[25.964,38.4083],[25.9593,38.4042],[25.9617,38.4017],[25.9642,38.4019],[25.9651,38.4038],[25.9669,38.4036],[25.9671,38.3989],[25.97,38.4016],[25.9747,38.3997],[25.9809,38.3931],[25.9813,38.3902],[25.9827,38.3894],[25.9815,38.3876],[25.9846,38.3854],[25.9862,38.3857],[25.9885,38.3917],[25.992,38.3908],[25.9905,38.3835],[25.9873,38.3806],[25.9866,38.378],[25.989,38.3791],[25.9926,38.373],[25.9949,38.3724],[25.9925,38.3707],[25.994,38.3663],[25.9931,38.3646],[25.9907,38.3635],[25.9875,38.3655],[25.9856,38.3631],[25.9884,38.3615],[25.9914,38.3624],[25.9952,38.3585],[25.9945,38.3568],[25.9965,38.3499],[25.9963,38.3459],[25.9951,38.3445],[25.996,38.3421],[25.9921,38.3407],[25.9906,38.3412],[25.9909,38.3417],[25.9909,38.3423],[25.9905,38.341],[25.9895,38.3431],[25.9912,38.3426],[25.9895,38.3433],[25.9893,38.3447],[25.987,38.3443],[25.985,38.3419],[25.9866,38.3389],[25.9845,38.3363],[25.9861,38.3336],[25.9848,38.333],[25.9855,38.3309],[25.9823,38.3317],[25.9809,38.3303],[25.9758,38.3318],[25.9742,38.3289],[25.9729,38.3291],[25.9733,38.3272],[25.9716,38.3265],[25.9737,38.3213],[25.9703,38.3214],[25.9669,38.3176],[25.97,38.317],[25.9704,38.3143],[25.9736,38.3104],[25.9695,38.3068],[25.9697,38.3051],[25.9669,38.3041],[25.9664,38.3019],[25.9676,38.3008],[25.964,38.2988],[25.9656,38.2955],[25.964,38.295],[25.9599,38.298],[25.9583,38.2953],[25.9526,38.2932],[25.951,38.2967],[25.9428,38.2989],[25.9412,38.2969],[25.9415,38.294],[25.9385,38.2932],[25.9359,38.2969],[25.9357,38.2999],[25.9313,38.3008],[25.9309,38.2972],[25.9284,38.2935],[25.9315,38.2881],[25.9289,38.2869],[25.9233,38.2904],[25.922,38.2928],[25.9259,38.299],[25.9245,38.3018],[25.9185,38.2999],[25.9193,38.2961],[25.9132,38.2941],[25.9119,38.2909],[25.9079,38.2883],[25.9044,38.2875],[25.9013,38.2901],[25.9013,38.2881],[25.9029,38.2865],[25.901,38.2869],[25.8994,38.2838],[25.8973,38.284],[25.8909,38.2794],[25.8889,38.2749],[25.8825,38.2745],[25.8799,38.273],[25.8754,38.2741],[25.8764,38.2699],[25.8735,38.2665],[25.8704,38.2652],[25.872,38.2612],[25.8706,38.2569],[25.8696,38.257],[25.8704,38.2565],[25.8665,38.2554],[25.8647,38.2507],[25.8655,38.249],[25.8632,38.2478],[25.8662,38.2456],[25.8639,38.2437],[25.8661,38.2413],[25.8681,38.2422],[25.8697,38.2399],[25.8695,38.2415],[25.8722,38.2402],[25.8736,38.2427],[25.8754,38.2424],[25.8777,38.2456],[25.8856,38.2442],[25.8881,38.2412],[25.8872,38.2388],[25.8885,38.2366],[25.8863,38.2317],[25.8891,38.2287],[25.8897,38.2255],[25.8867,38.2189],[25.8883,38.2172],[25.8868,38.215],[25.8902,38.2166],[25.89,38.2216],[25.8934,38.2242],[25.8943,38.2235],[25.8932,38.2215],[25.8956,38.219],[25.9009,38.2218],[25.903,38.2214],[25.9002,38.2178],[25.9021,38.2166],[25.904,38.2188],[25.9035,38.2212],[25.9062,38.223],[25.909,38.2222],[25.9083,38.2198],[25.9107,38.222],[25.914,38.2221],[25.9151,38.2208],[25.9115,38.2169],[25.9135,38.2145],[25.9125,38.2128],[25.91,38.2138],[25.9086,38.2123],[25.911,38.2089],[25.9139,38.2092],[25.9168,38.2078],[25.9191,38.2031],[25.9221,38.2062],[25.9227,38.2053],[25.9255,38.2073],[25.9273,38.2064],[25.9233,38.2012],[25.9241,38.195],[25.9264,38.1953],[25.9266,38.1924],[25.9307,38.1941],[25.9304,38.1924],[25.9316,38.1922],[25.9386,38.1972],[25.9528,38.1948],[25.9516,38.1911],[25.95,38.1905],[25.9497,38.1865],[25.9515,38.1845],[25.953,38.1851],[25.9539,38.1823],[25.9595,38.1817],[25.9595,38.1786],[25.9621,38.1762],[25.9616,38.1751],[25.9628,38.1752],[25.9629,38.1734],[25.9644,38.1761],[25.966,38.1729],[25.9691,38.1733],[25.9683,38.1716],[25.9705,38.1695],[25.9685,38.1676],[25.9716,38.1679],[25.9716,38.1666],[25.9733,38.1661],[25.9744,38.1695],[25.9757,38.167],[25.9792,38.1673],[25.9834,38.1644],[25.9846,38.1663],[25.9886,38.1645],[25.9895,38.1624],[25.9922,38.165],[25.9948,38.1645],[25.9933,38.1625],[25.9962,38.1612],[25.9954,38.1579],[25.9985,38.1553],[26.0023,38.1568],[26.0046,38.1553],[26.0081,38.157],[26.0111,38.155],[26.0119,38.147],[26.0179,38.1538],[26.0227,38.1568],[26.0234,38.1601],[26.0252,38.162],[26.0241,38.1638],[26.0253,38.1702],[26.0241,38.1714],[26.0255,38.1738],[26.0235,38.1786],[26.0309,38.1857],[26.0289,38.1871],[26.0291,38.1884],[26.0321,38.1873],[26.0329,38.1888],[26.0344,38.1886],[26.0334,38.1897],[26.0377,38.1952],[26.0382,38.1987],[26.0464,38.2021],[26.0494,38.201],[26.054,38.2042],[26.0622,38.2063],[26.0791,38.2066],[26.091,38.2091],[26.0973,38.2082],[26.1,38.2103],[26.1055,38.2233],[26.1133,38.2286],[26.1163,38.2332],[26.1157,38.235],[26.1075,38.2409],[26.1076,38.2422],[26.1073,38.2426],[26.1069,38.2415],[26.1059,38.2423],[26.104,38.2454],[26.1048,38.249],[26.1031,38.2519],[26.105,38.257],[26.1036,38.2591],[26.1032,38.264],[26.1042,38.2649],[26.1042,38.2658],[26.1035,38.2651],[26.102,38.2676],[26.1035,38.2725],[26.1132,38.2806],[26.1184,38.2827],[26.1196,38.2851],[26.1309,38.2906],[26.1331,38.295],[26.1383,38.2969],[26.1409,38.2998],[26.143,38.3005],[26.1473,38.3],[26.1493,38.3002],[26.1504,38.3005],[26.1478,38.3009],[26.1498,38.3008],[26.1501,38.3023],[26.1536,38.3036],[26.1605,38.3123],[26.1578,38.3142],[26.1538,38.3202],[26.1553,38.324],[26.1608,38.3264],[26.1601,38.3281],[26.1618,38.3293],[26.1594,38.3317],[26.158,38.3304],[26.155,38.3312],[26.1462,38.3362],[26.1425,38.3407],[26.1445,38.3475],[26.1431,38.35],[26.1447,38.363],[26.1431,38.3643],[26.1441,38.3657],[26.1435,38.3694],[26.1421,38.3683],[26.1434,38.3673],[26.1387,38.3677],[26.1374,38.3721],[26.1396,38.373],[26.1413,38.3712],[26.1452,38.3705],[26.142,38.3715],[26.138,38.3753],[26.1383,38.3777],[26.1394,38.3776],[26.1394,38.3759],[26.1396,38.3777],[26.1378,38.378],[26.1387,38.3823],[26.1379,38.3857],[26.1391,38.3862],[26.1383,38.3862],[26.139,38.3886],[26.1397,38.3854],[26.1397,38.3878],[26.1384,38.3895],[26.1396,38.3901],[26.1387,38.3907],[26.1397,38.3906],[26.1399,38.3896],[26.14,38.3904],[26.1363,38.3939],[26.1358,38.3975],[26.137,38.4001],[26.1362,38.4013],[26.1366,38.4003],[26.1352,38.4009],[26.134,38.4039],[26.1344,38.4089],[26.1371,38.4118],[26.1354,38.4131],[26.1354,38.4157],[26.134,38.4162],[26.1355,38.4186],[26.1343,38.4207],[26.1418,38.4297],[26.141,38.431],[26.1435,38.4341],[26.143,38.4366],[26.1449,38.4428],[26.1437,38.4442],[26.147,38.4456],[26.1467,38.4484],[26.1505,38.4491],[26.1531,38.4512],[26.1526,38.4541],[26.1544,38.4593],[26.1515,38.4619],[26.1529,38.4641],[26.1522,38.466],[26.1486,38.465],[26.1446,38.4598],[26.145,38.4577],[26.1432,38.4604],[26.1461,38.4642],[26.137,38.4619],[26.1359,38.4626],[26.1357,38.4642],[26.1432,38.4691],[26.1442,38.4716],[26.1429,38.4706],[26.1412,38.4712],[26.1435,38.4755],[26.1431,38.4772],[26.1379,38.4782],[26.134,38.4764],[26.1295,38.4757],[26.1245,38.4766],[26.1245,38.4764],[26.123,38.4756],[26.1243,38.4765],[26.1239,38.4779],[26.1272,38.48],[26.1276,38.4845],[26.1238,38.4874],[26.1261,38.4874],[26.1272,38.4903],[26.1313,38.4889],[26.1307,38.4873],[26.1319,38.4866],[26.1357,38.4887],[26.1437,38.4893],[26.1455,38.4903],[26.1454,38.4924],[26.1484,38.4926],[26.1529,38.4964],[26.1539,38.5013],[26.1528,38.5047],[26.1517,38.5048],[26.1525,38.5062],[26.1518,38.5091],[26.1499,38.5101],[26.1532,38.5121],[26.1505,38.5129],[26.1525,38.5143],[26.1504,38.516],[26.1515,38.5175],[26.1501,38.5195],[26.1515,38.5198],[26.1503,38.5211],[26.1556,38.5275],[26.1575,38.5321],[26.1619,38.5342],[26.1632,38.5361],[26.1605,38.5393],[26.161,38.5481],[26.1597,38.5495],[26.1609,38.551],[26.1591,38.5529],[26.1554,38.5518],[26.1538,38.5521],[26.153,38.554],[26.1485,38.5537],[26.1476,38.5571],[26.1458,38.557],[26.1406,38.5622],[26.1371,38.5629],[26.1371,38.5651],[26.1343,38.567],[26.1315,38.5658],[26.1335,38.5652],[26.1319,38.564],[26.1336,38.5568],[26.1328,38.5558],[26.128,38.5562],[26.1263,38.5549],[26.1293,38.5515],[26.128,38.55],[26.1315,38.5431],[26.1304,38.5423],[26.1289,38.5445],[26.1268,38.5429],[26.1263,38.5474],[26.1248,38.5469],[26.125,38.549],[26.1209,38.5549],[26.1189,38.5539],[26.1164,38.5552],[26.1149,38.5505],[26.1167,38.5483],[26.1182,38.541],[26.1142,38.5403],[26.1086,38.5442],[26.1108,38.5437],[26.1102,38.5445],[26.1085,38.5442],[26.1079,38.5496],[26.1093,38.552],[26.1061,38.556],[26.104,38.5556],[26.0999,38.5583],[26.0944,38.559],[26.0922,38.5585],[26.0904,38.5548],[26.0866,38.5549],[26.0848,38.5564],[26.0854,38.5582],[26.0832,38.5593],[26.0843,38.5606],[26.0795,38.5644],[26.0773,38.5695],[26.0745,38.572],[26.0762,38.5756],[26.0754,38.5751],[26.0754,38.5767],[26.0731,38.5782],[26.0742,38.5793],[26.0696,38.5833],[26.0668,38.5828],[26.0646,38.5851],[26.0628,38.5935],[26.0598,38.5932],[26.0547,38.5903],[26.0523,38.5913],[26.0467,38.5887],[26.043,38.5891],[26.0336,38.5938],[26.0317,38.5935],[26.0304,38.5955],[26.0281,38.596],[26.028,38.5976],[26.0241,38.5979],[26.0223,38.5998],[26.0133,38.5996],[26.0073,38.6047],[26.0028,38.6034],[26.0002,38.6043],[25.9982,38.6031],[25.9977,38.6008],[25.9925,38.5978],[25.9864,38.5985],[25.9747,38.5964],[25.9717,38.5972],[25.9607,38.5925],[25.9534,38.5918],[25.9494,38.5897],[25.943,38.5902],[25.9392,38.5878],[25.9349,38.5873],[25.9301,38.5889],[25.9144,38.588],[25.8992,38.5895],[25.8899,38.5885],[25.8817,38.5857],[25.8763,38.5857],[25.8624,38.5807],[25.8568,38.5801],[25.8511,38.5766],[25.8451,38.5673],[25.8443,38.5599],[25.842,38.5556],[25.8382,38.5516],[25.833,38.5503],[25.8308,38.5458]]]}}